[Satellite]
VERSION=1.1
NAME=CZ-4B R/B
NICKNAME=CZ-4B R/B
TLE1=1 42762U 17034E   17186.02789457 -.00002503  79193-5  00000-0 0  9996
TLE2=2 42762  43.1129 180.8038 0198395 129.3803 232.5042 15.55020726  3073
